NORAD_CAT_ID,OBJECT_NAME,OBJECT_TYPE,EPOCH,MEAN_MOTION,ECCENTRICITY,INCLINATION,RA_OF_ASC_NODE,ARG_OF_PERICENTER,MEAN_ANOMALY,BSTAR,MEAN_MOTION_DOT,MEAN_MOTION_DDOT,TLE_LINE0,TLE_LINE1,TLE_LINE2,SEMIMAJOR_AXIS,PERIOD,APOGEE,PERIGEE,DECAYED
49158.0,STARLINK-3083,PAYLOAD,2024-06-23 21:28:44,15.13388011,0.0003793,69.9959,36.3085,230.575,129.5081,0.0008768,0.0001561,0.0,0 STARLINK-3083,1 49158U 21082AE  24175.89495584  .00015610  00000-0  87680-3 0  9996,2 49158  69.9959  36.3085 0003793 230.5750 129.5081 15.13388011154406,6904.014,95.151,528.497,523.26,0.0
49158.0,STARLINK-3083,PAYLOAD,2024-06-24 00:39:05,15.13388976,0.0003795,69.9957,35.9668,231.2288,128.854,0.00076647,0.00013629,0.0,0 STARLINK-3083,1 49158U 21082AE  24176.02714836  .00013629  00000-0  76647-3 0  9995,2 49158  69.9957  35.9668 0003795 231.2288 128.8540 15.13388976154426,6904.011,95.151,528.496,523.256,0.0
49158.0,STARLINK-3083,PAYLOAD,2024-06-24 18:06:02,15.1340181,0.0003764,69.9958,34.0899,231.2951,128.788,0.00060103,0.00010663,0.0,0 STARLINK-3083,1 49158U 21082AE  24176.75420123  .00010663  00000-0  60103-3 0  9993,2 49158  69.9958  34.0899 0003764 231.2951 128.7880 15.13401810154537,6903.972,95.15,528.435,523.238,0.0
49158.0,STARLINK-3083,PAYLOAD,2024-06-24 21:16:24,15.13405692,0.0003762,69.9959,33.7488,231.0838,128.9994,0.00064337,0.00011425,0.0,0 STARLINK-3083,1 49158U 21082AE  24176.88639164  .00011425  00000-0  64337-3 0  9994,2 49158  69.9959  33.7488 0003762 231.0838 128.9994 15.13405692154550,6903.96,95.15,528.422,523.228,0.0
49158.0,STARLINK-3083,PAYLOAD,2024-06-25 14:43:20,15.1342003,0.0003632,69.9961,31.8712,231.7942,128.2898,0.00062746,0.00011143,0.0,0 STARLINK-3083,1 49158U 21082AE  24177.61343635  .00011143  00000-0  62746-3 0  9990,2 49158  69.9961  31.8712 0003632 231.7942 128.2898 15.13420030154662,6903.916,95.149,528.289,523.274,0.0
49158.0,STARLINK-3083,PAYLOAD,2024-06-25 21:04:03,15.1342487,0.0003658,69.9961,31.1885,231.7373,128.3465,0.00060463,0.00010735,0.0,0 STARLINK-3083,1 49158U 21082AE  24177.87781430  .00010735  00000-0  60463-3 0  9997,2 49158  69.9961  31.1885 0003658 231.7373 128.3465 15.13424870154704,6903.902,95.148,528.292,523.241,0.0
49158.0,STARLINK-3083,PAYLOAD,2024-06-25 22:39:13,15.13426741,0.0003652,69.9961,31.0179,231.6744,128.4095,0.00061422,0.00010908,0.0,0 STARLINK-3083,1 49158U 21082AE  24177.94390851  .00010908  00000-0  61422-3 0  9996,2 49158  69.9961  31.0179 0003652 231.6744 128.4095 15.13426741154714,6903.896,95.148,528.282,523.24,0.0
49158.0,STARLINK-3083,PAYLOAD,2024-06-26 00:14:24,15.1342845,0.0003643,69.9961,30.8472,231.9211,128.1628,0.00061508,0.00010924,0.0,0 STARLINK-3083,1 49158U 21082AE  24178.01000272  .00010924  00000-0  61508-3 0  9993,2 49158  69.9961  30.8472 0003643 231.9211 128.1628 15.13428450154728,6903.891,95.148,528.271,523.241,0.0
49158.0,STARLINK-3083,PAYLOAD,2024-06-26 22:26:51,15.13449983,0.0003585,69.9965,28.4582,232.0244,128.06,0.00066694,0.00011862,0.0,0 STARLINK-3083,1 49158U 21082AE  24178.93531539  .00011862  00000-0  66694-3 0  9992,2 49158  69.9965  28.4582 0003585 232.0244 128.0600 15.13449983154868,6903.825,95.147,528.165,523.215,0.0
49158.0,STARLINK-3083,PAYLOAD,2024-06-27 00:02:01,15.13451428,0.0003565,69.9964,28.2875,232.7248,127.3594,0.00065182,0.00011591,0.0,0 STARLINK-3083,1 49158U 21082AE  24179.00140864  .00011591  00000-0  65182-3 0  9998,2 49158  69.9964  28.2875 0003565 232.7248 127.3594 15.13451428154871,6903.821,95.147,528.147,523.225,0.0
49158.0,STARLINK-3083,PAYLOAD,2024-06-27 22:14:27,15.13470638,0.0003511,69.9967,25.898,232.3409,127.744,0.00062164,0.00011054,0.0,0 STARLINK-3083,1 49158U 21082AE  24179.92670820  .00011054  00000-0  62164-3 0  9990,2 49158  69.9967  25.8980 0003511 232.3409 127.7440 15.13470638155015,6903.762,95.146,528.051,523.204,0.0
49158.0,STARLINK-3083,PAYLOAD,2024-06-28 14:06:11,15.13490541,0.0003477,69.9969,24.1918,232.7104,127.3746,0.00083879,0.0001497,0.0,0 STARLINK-3083,1 49158U 21082AE  24180.58762798  .00014970  00000-0  83879-3 0  9996,2 49158  69.9969  24.1918 0003477 232.7104 127.3746 15.13490541155118,6903.702,95.144,527.967,523.167,0.0
49158.0,STARLINK-3083,PAYLOAD,2024-06-28 20:26:52,15.13495998,0.0003514,69.9969,23.5091,231.7458,128.3393,0.00077786,0.00013875,0.0,0 STARLINK-3083,1 49158U 21082AE  24180.85199367  .00013875  00000-0  77786-3 0  9995,2 49158  69.9969  23.5091 0003514 231.7458 128.3393 15.13495998155150,6903.685,95.144,527.976,523.124,0.0
49158.0,STARLINK-3083,PAYLOAD,2024-06-28 22:02:02,15.13498492,0.0003513,69.9969,23.3386,231.461,128.6242,0.00079492,0.00014183,0.0,0 STARLINK-3083,1 49158U 21082AE  24180.91808472  .00014183  00000-0  79492-3 0  9995,2 49158  69.9969  23.3386 0003513 231.4610 128.6242 15.13498492155160,6903.678,95.144,527.968,523.118,0.0
49158.0,STARLINK-3083,PAYLOAD,2024-06-29 13:53:45,15.13513859,0.0003489,69.997,21.6326,230.5446,129.5413,0.00069398,0.00012371,0.0,0 STARLINK-3083,1 49158U 21082AE  24181.57899315  .00012371  00000-0  69398-3 0  9995,2 49158  69.9970  21.6326 0003489 230.5446 129.5413 15.13513859155262,6903.631,95.143,527.905,523.087,0.0
49158.0,STARLINK-3083,PAYLOAD,2024-06-29 21:49:36,15.1352143,0.000346,69.997,20.7791,231.0224,129.0635,0.00066058,0.00011772,0.0,0 STARLINK-3083,1 49158U 21082AE  24181.90944476  .00011772  00000-0  66058-3 0  9995,2 49158  69.9970  20.7791 0003460 231.0224 129.0635 15.13521430155318,6903.608,95.142,527.862,523.084,0.0
49158.0,STARLINK-3083,PAYLOAD,2024-06-29 23:24:46,15.13523148,0.0003454,69.997,20.6085,231.0463,129.0397,0.00065792,0.00011724,0.0,0 STARLINK-3083,1 49158U 21082AE  24181.97553486  .00011724  00000-0  65792-3 0  9990,2 49158  69.9970  20.6085 0003454 231.0463 129.0397 15.13523148155325,6903.603,95.142,527.852,523.083,0.0
49158.0,STARLINK-3083,PAYLOAD,2024-06-30 13:41:17,15.13534119,0.0003422,69.997,19.0729,230.7843,129.3021,0.0005829,0.00010376,0.0,0 STARLINK-3083,1 49158U 21082AE  24182.57034363  .00010376  00000-0  58290-3 0  9992,2 49158  69.9970  19.0729 0003422 230.7843 129.3021 15.13534119155412,6903.569,95.142,527.797,523.072,0.0
49158.0,STARLINK-3083,PAYLOAD,2024-06-30 21:37:08,15.13541916,0.0003392,69.997,18.2197,230.9456,129.141,0.00061229,0.00010908,0.0,0 STARLINK-3083,1 49158U 21082AE  24182.90079068  .00010908  00000-0  61229-3 0  9997,2 49158  69.9970  18.2197 0003392 230.9456 129.1410 15.13541916155468,6903.546,95.141,527.752,523.069,0.0
49158.0,STARLINK-3083,PAYLOAD,2024-07-01 13:28:49,15.13553306,0.0003316,69.9969,16.5133,231.3019,128.7851,0.00052744,9.383e-05,0.0,0 STARLINK-3083,1 49158U 21082AE  24183.56168103  .00009383  00000-0  52744-3 0  9996,2 49158  69.9969  16.5133 0003316 231.3019 128.7851 15.13553306155564,6903.511,95.14,527.665,523.087,0.0
49158.0,STARLINK-3083,PAYLOAD,2024-07-01 15:03:59,15.13554454,0.0003326,69.9968,16.3427,230.9574,129.1297,0.00052641,9.364e-05,0.0,0 STARLINK-3083,1 49158U 21082AE  24183.62776970  .00009364  00000-0  52641-3 0  9995,2 49158  69.9968  16.3427 0003326 230.9574 129.1297 15.13554454155574,6903.508,95.14,527.669,523.076,0.0
49158.0,STARLINK-3083,PAYLOAD,2024-07-01 21:24:39,15.13559576,0.0003296,69.9968,15.6601,231.3253,128.7619,0.00053175,9.462e-05,0.0,0 STARLINK-3083,1 49158U 21082AE  24183.89212405  .00009462  00000-0  53175-3 0  9994,2 49158  69.9968  15.6601 0003296 231.3253 128.7619 15.13559576155613,6903.492,95.14,527.632,523.082,0.0
49158.0,STARLINK-3083,PAYLOAD,2024-07-02 14:51:29,15.1357158,0.0003233,69.9967,13.783,230.7577,129.3303,0.00046551,8.271e-05,0.0,0 STARLINK-3083,1 49158U 21082AE  24184.61909424  .00008271  00000-0  46551-3 0  9996,2 49158  69.9967  13.7830 0003233 230.7577 129.3303 15.13571580155726,6903.456,95.139,527.552,523.089,0.0
49158.0,STARLINK-3083,PAYLOAD,2024-07-02 19:36:59,15.13575238,0.0003203,69.9967,13.2711,230.961,129.1272,0.00048041,8.54e-05,0.0,0 STARLINK-3083,1 49158U 21082AE  24184.81735786  .00008540  00000-0  48041-3 0  9991,2 49158  69.9967  13.2711 0003203 230.9610 129.1272 15.13575238155756,6903.444,95.139,527.521,523.098,0.0
49158.0,STARLINK-3083,PAYLOAD,2024-07-02 21:12:09,15.13576797,0.0003191,69.9967,13.1004,231.1417,128.9465,0.00048924,8.7e-05,0.0,0 STARLINK-3083,1 49158U 21082AE  24184.88344554  .00008700  00000-0  48924-3 0  9995,2 49158  69.9967  13.1004 0003191 231.1417 128.9465 15.13576797155767,6903.44,95.139,527.508,523.102,0.0
49158.0,STARLINK-3083,PAYLOAD,2024-07-03 22:34:48,15.13594259,0.0003082,69.9966,10.3698,231.91,128.1789,0.00045336,8.057e-05,0.0,0 STARLINK-3083,1 49158U 21082AE  24185.94084278  .00008057  00000-0  45336-3 0  9996,2 49158  69.9966  10.3698 0003082 231.9100 128.1789 15.13594259155922,6903.387,95.138,527.379,523.124,0.0
49158.0,STARLINK-3083,PAYLOAD,2024-07-04 14:26:27,15.13604185,0.0003023,69.9965,8.6633,231.5911,128.4984,0.00041376,7.345e-05,0.0,0 STARLINK-3083,1 49158U 21082AE  24186.60171012  .00007345  00000-0  41376-3 0  9992,2 49158  69.9965   8.6633 0003023 231.5911 128.4984 15.13604185156023,6903.356,95.137,527.308,523.135,0.0
49158.0,STARLINK-3083,PAYLOAD,2024-07-04 22:22:17,15.13611375,0.0002996,69.9965,7.81,231.3131,128.7769,0.00047234,8.404e-05,0.0,0 STARLINK-3083,1 49158U 21082AE  24186.93214164  .00008404  00000-0  47234-3 0  9990,2 49158  69.9965   7.8100 0002996 231.3131 128.7769 15.13611375156071,6903.335,95.137,527.268,523.131,0.0
49158.0,STARLINK-3083,PAYLOAD,2024-07-05 12:38:45,15.13621288,0.0002953,69.9965,6.2742,230.4443,129.6463,0.00045932,8.171e-05,0.0,0 STARLINK-3083,1 49158U 21082AE  24187.52691566  .00008171  00000-0  45932-3 0  9995,2 49158  69.9965   6.2742 0002953 230.4443 129.6463 15.13621288156160,6903.304,95.136,527.208,523.131,0.0
49158.0,STARLINK-3083,PAYLOAD,2024-07-05 14:13:55,15.13621965,0.0002949,69.9965,6.1035,230.3372,129.7535,0.00044869,7.979e-05,0.0,0 STARLINK-3083,1 49158U 21082AE  24187.59300148  .00007979  00000-0  44869-3 0  9998,2 49158  69.9965   6.1035 0002949 230.3372 129.7535 15.13621965156173,6903.302,95.136,527.203,523.132,0.0
